{"type": "FeatureCollection", "features": [ {"type": "Feature", "properties": {"norad_id": 40697, "name": "SENTINEL-2A", "group": "resource", "lat": 81.33154700624775, "lon": -45.05784833980853, "alt_km": 780.7765804028304, "timestamp": "2025-12-06T18:50:09.828045+00:00", "meta": {"OBJECT_NAME": "SENTINEL-2A", "OBJECT_ID": "2015-028A", "EPOCH": "2025-12-06T06:39:46.711008", "MEAN_MOTION": 14.3082362, "ECCENTRICITY": 0.00010345, "INCLINATION": 98.5701, "RA_OF_ASC_NODE": 52.9025, "ARG_OF_PERICENTER": 94.468, "MEAN_ANOMALY": 265.6621, "EPHEMERIS_TYPE": 0, "CLASSIFICATION_TYPE": "U", "NORAD_CAT_ID": 40697, "ELEMENT_SET_NO": 999, "REV_AT_EPOCH": 54614, "BSTAR": 0.00014789752, "MEAN_MOTION_DOT": 3.44e-06, "MEAN_MOTION_DDOT": 0}, "tle": {"line1": "1 40697U 15028A   25340.27762397  .00000344  00000+0  14790-3 0  9993", "line2": "2 40697  98.5701  52.9025 0001034  94.4680 265.6621 14.30823620546147"}}, "geometry": {"type": "Point", "coordinates": [-45.05784833980853, 81.33154700624775]}}, {"type": "Feature", "properties": {"norad_id": 40701, "name": "GAOFEN-8", "group": "resource", "lat": -4.551270364327013, "lon": 159.25281433879186, "alt_km": 462.3438807931916, "timestamp": "2025-12-06T18:50:09.828056+00:00", "meta": {"OBJECT_NAME": "GAOFEN-8", "OBJECT_ID": "2015-030A", "EPOCH": "2025-12-06T06:21:58.191840", "MEAN_MOTION": 15.38225472, "ECCENTRICITY": 0.00113064, "INCLINATION": 97.6908, "RA_OF_ASC_NODE": 158.092, "ARG_OF_PERICENTER": 160.7131, "MEAN_ANOMALY": 199.4543, "EPHEMERIS_TYPE": 0, "CLASSIFICATION_TYPE": "U", "NORAD_CAT_ID": 40701, "ELEMENT_SET_NO": 999, "REV_AT_EPOCH": 58171, "BSTAR": 0.00079643888, "MEAN_MOTION_DOT": 0.00030046, "MEAN_MOTION_DDOT": 0}, "tle": {"line1": "1 40701U 15030A   25340.26525685  .00030046  00000+0  79644-3 0  9999", "line2": "2 40701  97.6908 158.0920 0011306 160.7131 199.4543 15.38225472581714"}}, "geometry": {"type": "Point", "coordinates": [159.25281433879186, -4.551270364327013]}}, {"type": "Feature", "properties": {"norad_id": 40718, "name": "CARBONITE 1 (CBNT-1)", "group": "resource", "lat": 38.22975937410328, "lon": 156.02123829531104, "alt_km": 627.3569396411303, "timestamp": "2025-12-06T18:50:09.828065+00:00", "meta": {"OBJECT_NAME": "CARBONITE 1 (CBNT-1)", "OBJECT_ID": "2015-032D", "EPOCH": "2025-12-06T05:42:16.445376", "MEAN_MOTION": 14.82696669, "ECCENTRICITY": 0.00139861, "INCLINATION": 97.6401, "RA_OF_ASC_NODE": 161.5684, "ARG_OF_PERICENTER": 203.2072, "MEAN_ANOMALY": 156.8512, "EPHEMERIS_TYPE": 0, "CLASSIFICATION_TYPE": "U", "NORAD_CAT_ID": 40718, "ELEMENT_SET_NO": 999, "REV_AT_EPOCH": 56074, "BSTAR": 0.00053994413, "MEAN_MOTION_DOT": 4.314e-05, "MEAN_MOTION_DDOT": 0}, "tle": {"line1": "1 40718U 15032D   25340.23769034  .00004314  00000+0  53994-3 0  9993", "line2": "2 40718  97.6401 161.5684 0013986 203.2072 156.8512 14.82696669560740"}}, "geometry": {"type": "Point", "coordinates": [156.02123829531104, 38.22975937410328]}}, {"type": "Feature", "properties": {"norad_id": 40878, "name": "YAOGAN-27", "group": "resource", "lat": 62.34575320225609, "lon": -49.21238446773734, "alt_km": 1196.7760379687998, "timestamp": "2025-12-06T18:50:09.828076+00:00", "meta": {"OBJECT_NAME": "YAOGAN-27", "OBJECT_ID": "2015-040A", "EPOCH": "2025-12-06T05:44:23.405856", "MEAN_MOTION": 13.16059916, "ECCENTRICITY": 0.00076945, "INCLINATION": 100.1007, "RA_OF_ASC_NODE": 330.1534, "ARG_OF_PERICENTER": 302.7295, "MEAN_ANOMALY": 57.3077, "EPHEMERIS_TYPE": 0, "CLASSIFICATION_TYPE": "U", "NORAD_CAT_ID": 40878, "ELEMENT_SET_NO": 999, "REV_AT_EPOCH": 49228, "BSTAR": 0.00015395942, "MEAN_MOTION_DOT": 1.6e-07, "MEAN_MOTION_DDOT": 0}, "tle": {"line1": "1 40878U 15040A   25340.23915979  .00000016  00000+0  15396-3 0  9999", "line2": "2 40878 100.1007 330.1534 0007694 302.7295  57.3077 13.16059916492286"}}, "geometry": {"type": "Point", "coordinates": [-49.21238446773734, 62.34575320225609]}}, {"type": "Feature", "properties": {"norad_id": 40894, "name": "GAOFEN-9 01", "group": "resource", "lat": -33.84358720371341, "lon": 25.171762632806804, "alt_km": 626.9244787395, "timestamp": "2025-12-06T18:50:09.828087+00:00", "meta": {"OBJECT_NAME": "GAOFEN-9 01", "OBJECT_ID": "2015-047A", "EPOCH": "2025-12-06T06:01:47.201664", "MEAN_MOTION": 14.82397843, "ECCENTRICITY": 0.00288181, "INCLINATION": 97.6547, "RA_OF_ASC_NODE": 19.4871, "ARG_OF_PERICENTER": 54.8237, "MEAN_ANOMALY": 305.567, "EPHEMERIS_TYPE": 0, "CLASSIFICATION_TYPE": "U", "NORAD_CAT_ID": 40894, "ELEMENT_SET_NO": 999, "REV_AT_EPOCH": 55160, "BSTAR": 0.00032536853, "MEAN_MOTION_DOT": 2.574e-05, "MEAN_MOTION_DDOT": 0}, "tle": {"line1": "1 40894U 15047A   25340.25124076  .00002574  00000+0  32537-3 0  9993", "line2": "2 40894  97.6547  19.4871 0028818  54.8237 305.5670 14.82397843551603"}}, "geometry": {"type": "Point", "coordinates": [25.171762632806804, -33.84358720371341]}}, {"type": "Feature", "properties": {"norad_id": 41026, "name": "YAOGAN-28", "group": "resource", "lat": -57.625441009958564, "lon": 130.3801910991563, "alt_km": 507.8761436659988, "timestamp": "2025-12-06T18:50:09.828097+00:00", "meta": {"OBJECT_NAME": "YAOGAN-28", "OBJECT_ID": "2015-064A", "EPOCH": "2025-12-06T08:03:46.987200", "MEAN_MOTION": 15.24191416, "ECCENTRICITY": 0.00120475, "INCLINATION": 97.2807, "RA_OF_ASC_NODE": 118.3103, "ARG_OF_PERICENTER": 147.1879, "MEAN_ANOMALY": 213.0109, "EPHEMERIS_TYPE": 0, "CLASSIFICATION_TYPE": "U", "NORAD_CAT_ID": 41026, "ELEMENT_SET_NO": 999, "REV_AT_EPOCH": 56127, "BSTAR": 0.0006676915, "MEAN_MOTION_DOT": 0.00016248, "MEAN_MOTION_DDOT": 0}, "tle": {"line1": "1 41026U 15064A   25340.33596050  .00016248  00000+0  66769-3 0  9991", "line2": "2 41026  97.2807 118.3103 0012047 147.1879 213.0109 15.24191416561277"}}, "geometry": {"type": "Point", "coordinates": [130.3801910991563, -57.625441009958564]}}, {"type": "Feature", "properties": {"norad_id": 41038, "name": "YAOGAN-29", "group": "resource", "lat": -23.76599998780829, "lon": -179.62325996266645, "alt_km": 626.128770653946, "timestamp": "2025-12-06T18:50:09.828107+00:00", "meta": {"OBJECT_NAME": "YAOGAN-29", "OBJECT_ID": "2015-069A", "EPOCH": "2025-12-06T06:34:59.105280", "MEAN_MOTION": 14.82871965, "ECCENTRICITY": 5.335e-05, "INCLINATION": 98.0224, "RA_OF_ASC_NODE": 3.4251, "ARG_OF_PERICENTER": 358.1959, "MEAN_ANOMALY": 1.9252, "EPHEMERIS_TYPE": 0, "CLASSIFICATION_TYPE": "U", "NORAD_CAT_ID": 41038, "ELEMENT_SET_NO": 999, "REV_AT_EPOCH": 54203, "BSTAR": 0.0001264384, "MEAN_MOTION_DOT": 9.7e-06, "MEAN_MOTION_DDOT": 0}, "tle": {"line1": "1 41038U 15069A   25340.27429520  .00000970  00000+0  12644-3 0  9997", "line2": "2 41038  98.0224   3.4251 0000533 358.1959   1.9252 14.82871965542033"}}, "geometry": {"type": "Point", "coordinates": [-179.62325996266645, -23.76599998780829]}}, {"type": "Feature", "properties": {"norad_id": 41167, "name": "KENT RIDGE 1", "group": "resource", "lat": -11.94766783563482, "lon": 127.648951897369, "alt_km": 505.6404675013764, "timestamp": "2025-12-06T18:50:09.828117+00:00", "meta": {"OBJECT_NAME": "KENT RIDGE 1", "OBJECT_ID": "2015-077B", "EPOCH": "2025-12-06T00:30:39.133728", "MEAN_MOTION": 15.21554982, "ECCENTRICITY": 0.00086098, "INCLINATION": 14.9799, "RA_OF_ASC_NODE": 260.9929, "ARG_OF_PERICENTER": 35.4877, "MEAN_ANOMALY": 324.6017, "EPHEMERIS_TYPE": 0, "CLASSIFICATION_TYPE": "U", "NORAD_CAT_ID": 41167, "ELEMENT_SET_NO": 999, "REV_AT_EPOCH": 55161, "BSTAR": 0.00028434747, "MEAN_MOTION_DOT": 7.37e-05, "MEAN_MOTION_DDOT": 0}, "tle": {"line1": "1 41167U 15077B   25340.02128627  .00007370  00000+0  28435-3 0  9992", "line2": "2 41167  14.9799 260.9929 0008609  35.4877 324.6017 15.21554982551617"}}, "geometry": {"type": "Point", "coordinates": [127.648951897369, -11.94766783563482]}}, {"type": "Feature", "properties": {"norad_id": 41194, "name": "GAOFEN-4", "group": "resource", "lat": 0.080581091180961, "lon": 104.01226950300523, "alt_km": 35784.12477059004, "timestamp": "2025-12-06T18:50:09.828129+00:00", "meta": {"OBJECT_NAME": "GAOFEN-4", "OBJECT_ID": "2015-083A", "EPOCH": "2025-12-06T07:19:11.046144", "MEAN_MOTION": 1.00272244, "ECCENTRICITY": 0.0003629, "INCLINATION": 0.1532, "RA_OF_ASC_NODE": 80.9473, "ARG_OF_PERICENTER": 105.7587, "MEAN_ANOMALY": 104.1394, "EPHEMERIS_TYPE": 0, "CLASSIFICATION_TYPE": "U", "NORAD_CAT_ID": 41194, "ELEMENT_SET_NO": 999, "REV_AT_EPOCH": 3659, "BSTAR": 0, "MEAN_MOTION_DOT": -3.27e-06, "MEAN_MOTION_DDOT": 0}, "tle": {"line1": "1 41194U 15083A   25340.30498896 -.00000327  00000+0  00000+0 0  9998", "line2": "2 41194   0.1532  80.9473 0003629 105.7587 104.1394  1.00272244 36593"}}, "geometry": {"type": "Point", "coordinates": [104.01226950300523, 0.080581091180961]}}, {"type": "Feature", "properties": {"norad_id": 41240, "name": "JASON-3", "group": "resource", "lat": 59.4693459006755, "lon": -140.7211939617684, "alt_km": 1309.4729265071192, "timestamp": "2025-12-06T18:50:09.828140+00:00", "meta": {"OBJECT_NAME": "JASON-3", "OBJECT_ID": "2016-002A", "EPOCH": "2025-12-06T07:17:11.751936", "MEAN_MOTION": 12.87626244, "ECCENTRICITY": 0.000713, "INCLINATION": 66.0391, "RA_OF_ASC_NODE": 171.3558, "ARG_OF_PERICENTER": 270.4488, "MEAN_ANOMALY": 89.5713, "EPHEMERIS_TYPE": 0, "CLASSIFICATION_TYPE": "U", "NORAD_CAT_ID": 41240, "ELEMENT_SET_NO": 999, "REV_AT_EPOCH": 46241, "BSTAR": 0.0001344931, "MEAN_MOTION_DOT": -2.8e-07, "MEAN_MOTION_DDOT": 0}, "tle": {"line1": "1 41240U 16002A   25340.30360824 -.00000028  00000+0  13449-3 0  9994", "line2": "2 41240  66.0391 171.3558 0007130 270.4488  89.5713 12.87626244462414"}}, "geometry": {"type": "Point", "coordinates": [-140.7211939617684, 59.4693459006755]}}]}